CCSDS_OMM_VERS = 2.0
CREATION_DATE  = 
ORIGINATOR     = 

OBJECT_NAME    = ATLAS CENTAUR 2
OBJECT_ID      = 1963-047A
CENTER_NAME    = EARTH
REF_FRAME      = TEME
TIME_SYSTEM    = UTC
MEAN_ELEMENT_THEORY = SGP/SGP4

EPOCH          = 2026-02-22T01:30:13.971744
MEAN_MOTION    = 14.12018178
ECCENTRICITY   = .0548113
INCLINATION    = 30.3565
RA_OF_ASC_NODE = 282.9753
ARG_OF_PERICENTER = 302.5696
MEAN_ANOMALY   = 52.3109

EPHEMERIS_TYPE = 0
CLASSIFICATION_TYPE = U
NORAD_CAT_ID   = 694
ELEMENT_SET_NO = 999
REV_AT_EPOCH   = 12941
BSTAR          = .11991E-3
MEAN_MOTION_DOT = .1095E-4
MEAN_MOTION_DDOT = 0

CCSDS_OMM_VERS = 2.0
CREATION_DATE  = 
ORIGINATOR     = 

OBJECT_NAME    = THOR AGENA D R/B
OBJECT_ID      = 1964-002A
CENTER_NAME    = EARTH
REF_FRAME      = TEME
TIME_SYSTEM    = UTC
MEAN_ELEMENT_THEORY = SGP/SGP4

EPOCH          = 2026-02-22T19:11:54.605184
MEAN_MOTION    = 14.34010348
ECCENTRICITY   = .0032062
INCLINATION    = 99.1229
RA_OF_ASC_NODE = 66.3261
ARG_OF_PERICENTER = 302.8301
MEAN_ANOMALY   = 56.9796

EPHEMERIS_TYPE = 0
CLASSIFICATION_TYPE = U
NORAD_CAT_ID   = 733
ELEMENT_SET_NO = 999
REV_AT_EPOCH   = 23616
BSTAR          = .98007E-4
MEAN_MOTION_DOT = .226E-5
MEAN_MOTION_DDOT = 0

CCSDS_OMM_VERS = 2.0
CREATION_DATE  = 
ORIGINATOR     = 

OBJECT_NAME    = SL-3 R/B
OBJECT_ID      = 1964-053B
CENTER_NAME    = EARTH
REF_FRAME      = TEME
TIME_SYSTEM    = UTC
MEAN_ELEMENT_THEORY = SGP/SGP4

EPOCH          = 2026-02-22T15:16:17.043168
MEAN_MOTION    = 14.61351394
ECCENTRICITY   = .0079102
INCLINATION    = 65.0782
RA_OF_ASC_NODE = 15.3676
ARG_OF_PERICENTER = 296.9977
MEAN_ANOMALY   = 62.3061

EPHEMERIS_TYPE = 0
CLASSIFICATION_TYPE = U
NORAD_CAT_ID   = 877
ELEMENT_SET_NO = 999
REV_AT_EPOCH   = 26459
BSTAR          = .96165E-4
MEAN_MOTION_DOT = .372E-5
MEAN_MOTION_DDOT = 0

CCSDS_OMM_VERS = 2.0
CREATION_DATE  = 
ORIGINATOR     = 

OBJECT_NAME    = SL-8 R/B
OBJECT_ID      = 1967-045B
CENTER_NAME    = EARTH
REF_FRAME      = TEME
TIME_SYSTEM    = UTC
MEAN_ELEMENT_THEORY = SGP/SGP4

EPOCH          = 2026-02-22T20:02:16.088352
MEAN_MOTION    = 14.45605809
ECCENTRICITY   = .0063587
INCLINATION    = 74.0122
RA_OF_ASC_NODE = 15.8283
ARG_OF_PERICENTER = 25.6940
MEAN_ANOMALY   = 334.7352

EPHEMERIS_TYPE = 0
CLASSIFICATION_TYPE = U
NORAD_CAT_ID   = 2802
ELEMENT_SET_NO = 999
REV_AT_EPOCH   = 8687
BSTAR          = .13567E-3
MEAN_MOTION_DOT = .463E-5
MEAN_MOTION_DDOT = 0

CCSDS_OMM_VERS = 2.0
CREATION_DATE  = 
ORIGINATOR     = 

OBJECT_NAME    = SL-8 R/B
OBJECT_ID      = 1968-040B
CENTER_NAME    = EARTH
REF_FRAME      = TEME
TIME_SYSTEM    = UTC
MEAN_ELEMENT_THEORY = SGP/SGP4

EPOCH          = 2026-02-22T19:14:28.237344
MEAN_MOTION    = 15.03138685
ECCENTRICITY   = .0024612
INCLINATION    = 74.0331
RA_OF_ASC_NODE = 344.1101
ARG_OF_PERICENTER = 172.6315
MEAN_ANOMALY   = 187.5240

EPHEMERIS_TYPE = 0
CLASSIFICATION_TYPE = U
NORAD_CAT_ID   = 3230
ELEMENT_SET_NO = 999
REV_AT_EPOCH   = 8777
BSTAR          = .29E-3
MEAN_MOTION_DOT = .3902E-4
MEAN_MOTION_DDOT = 0

CCSDS_OMM_VERS = 2.0
CREATION_DATE  = 
ORIGINATOR     = 

OBJECT_NAME    = OAO 2
OBJECT_ID      = 1968-110A
CENTER_NAME    = EARTH
REF_FRAME      = TEME
TIME_SYSTEM    = UTC
MEAN_ELEMENT_THEORY = SGP/SGP4

EPOCH          = 2026-02-22T19:30:20.341152
MEAN_MOTION    = 14.47297733
ECCENTRICITY   = .000486
INCLINATION    = 34.9948
RA_OF_ASC_NODE = 348.2840
ARG_OF_PERICENTER = 77.7765
MEAN_ANOMALY   = 282.3470

EPHEMERIS_TYPE = 0
CLASSIFICATION_TYPE = U
NORAD_CAT_ID   = 3597
ELEMENT_SET_NO = 999
REV_AT_EPOCH   = 1694
BSTAR          = .74331E-4
MEAN_MOTION_DOT = .257E-5
MEAN_MOTION_DDOT = 0

CCSDS_OMM_VERS = 2.0
CREATION_DATE  = 
ORIGINATOR     = 

OBJECT_NAME    = ISIS 1
OBJECT_ID      = 1969-009A
CENTER_NAME    = EARTH
REF_FRAME      = TEME
TIME_SYSTEM    = UTC
MEAN_ELEMENT_THEORY = SGP/SGP4

EPOCH          = 2026-02-22T16:09:36.948384
MEAN_MOTION    = 11.30408703
ECCENTRICITY   = .1707819
INCLINATION    = 88.4555
RA_OF_ASC_NODE = 156.9449
ARG_OF_PERICENTER = 119.4583
MEAN_ANOMALY   = 258.7680

EPHEMERIS_TYPE = 0
CLASSIFICATION_TYPE = U
NORAD_CAT_ID   = 3669
ELEMENT_SET_NO = 999
REV_AT_EPOCH   = 34683
BSTAR          = .1165E-3
MEAN_MOTION_DOT = .186E-5
MEAN_MOTION_DDOT = 0

CCSDS_OMM_VERS = 2.0
CREATION_DATE  = 
ORIGINATOR     = 

OBJECT_NAME    = SERT 2
OBJECT_ID      = 1970-009A
CENTER_NAME    = EARTH
REF_FRAME      = TEME
TIME_SYSTEM    = UTC
MEAN_ELEMENT_THEORY = SGP/SGP4

EPOCH          = 2026-02-22T15:02:58.809120
MEAN_MOTION    = 13.58728328
ECCENTRICITY   = .0004457
INCLINATION    = 99.2739
RA_OF_ASC_NODE = 357.5465
ARG_OF_PERICENTER = 194.3845
MEAN_ANOMALY   = 344.4080

EPHEMERIS_TYPE = 0
CLASSIFICATION_TYPE = U
NORAD_CAT_ID   = 4327
ELEMENT_SET_NO = 999
REV_AT_EPOCH   = 77784
BSTAR          = .10721E-3
MEAN_MOTION_DOT = .37E-6
MEAN_MOTION_DDOT = 0

CCSDS_OMM_VERS = 2.0
CREATION_DATE  = 
ORIGINATOR     = 

OBJECT_NAME    = SL-3 R/B
OBJECT_ID      = 1971-028B
CENTER_NAME    = EARTH
REF_FRAME      = TEME
TIME_SYSTEM    = UTC
MEAN_ELEMENT_THEORY = SGP/SGP4

EPOCH          = 2026-02-22T18:41:48.864192
MEAN_MOTION    = 15.59789934
ECCENTRICITY   = .0015633
INCLINATION    = 81.2332
RA_OF_ASC_NODE = 70.4296
ARG_OF_PERICENTER = 346.3997
MEAN_ANOMALY   = 13.6832

EPHEMERIS_TYPE = 0
CLASSIFICATION_TYPE = U
NORAD_CAT_ID   = 5118
ELEMENT_SET_NO = 999
REV_AT_EPOCH   = 98634
BSTAR          = .53734E-3
MEAN_MOTION_DOT = .43486E-3
MEAN_MOTION_DDOT = 0

CCSDS_OMM_VERS = 2.0
CREATION_DATE  = 
ORIGINATOR     = 

OBJECT_NAME    = ASTEX 1
OBJECT_ID      = 1971-089A
CENTER_NAME    = EARTH
REF_FRAME      = TEME
TIME_SYSTEM    = UTC
MEAN_ELEMENT_THEORY = SGP/SGP4

EPOCH          = 2026-02-22T17:12:26.616672
MEAN_MOTION    = 14.50751120
ECCENTRICITY   = .0017371
INCLINATION    = 92.7140
RA_OF_ASC_NODE = 146.9167
ARG_OF_PERICENTER = 130.3160
MEAN_ANOMALY   = 229.9567

EPHEMERIS_TYPE = 0
CLASSIFICATION_TYPE = U
NORAD_CAT_ID   = 5560
ELEMENT_SET_NO = 999
REV_AT_EPOCH   = 86013
BSTAR          = .13593E-3
MEAN_MOTION_DOT = .535E-5
MEAN_MOTION_DDOT = 0

CCSDS_OMM_VERS = 2.0
CREATION_DATE  = 
ORIGINATOR     = 

OBJECT_NAME    = SL-8 R/B
OBJECT_ID      = 1971-119B
CENTER_NAME    = EARTH
REF_FRAME      = TEME
TIME_SYSTEM    = UTC
MEAN_ELEMENT_THEORY = SGP/SGP4

EPOCH          = 2026-02-22T16:41:30.640992
MEAN_MOTION    = 14.37363871
ECCENTRICITY   = .0551679
INCLINATION    = 73.8870
RA_OF_ASC_NODE = 203.7347
ARG_OF_PERICENTER = 173.4710
MEAN_ANOMALY   = 187.4044

EPHEMERIS_TYPE = 0
CLASSIFICATION_TYPE = U
NORAD_CAT_ID   = 5730
ELEMENT_SET_NO = 999
REV_AT_EPOCH   = 65333
BSTAR          = .82809E-3
MEAN_MOTION_DOT = .15971E-3
MEAN_MOTION_DDOT = 0

CCSDS_OMM_VERS = 2.0
CREATION_DATE  = 
ORIGINATOR     = 

OBJECT_NAME    = OAO 3 (COPERNICUS)
OBJECT_ID      = 1972-065A
CENTER_NAME    = EARTH
REF_FRAME      = TEME
TIME_SYSTEM    = UTC
MEAN_ELEMENT_THEORY = SGP/SGP4

EPOCH          = 2026-02-22T15:27:48.093696
MEAN_MOTION    = 14.59983807
ECCENTRICITY   = .0006186
INCLINATION    = 35.0067
RA_OF_ASC_NODE = 23.0323
ARG_OF_PERICENTER = 33.1256
MEAN_ANOMALY   = 142.7810

EPHEMERIS_TYPE = 0
CLASSIFICATION_TYPE = U
NORAD_CAT_ID   = 6153
ELEMENT_SET_NO = 999
REV_AT_EPOCH   = 84399
BSTAR          = .86875E-4
MEAN_MOTION_DOT = .402E-5
MEAN_MOTION_DDOT = 0

