ATLAS CENTAUR 2         
1 00694U 63047A   26053.06266171  .00001095  00000+0  11991-3 0  9992
2 00694  30.3565 282.9753 0548113 302.5696  52.3109 14.12018178129412
THOR AGENA D R/B        
1 00733U 64002A   26053.79993756  .00000226  00000+0  98007-4 0  9993
2 00733  99.1229  66.3261 0032062 302.8301  56.9796 14.34010348236169
SL-3 R/B                
1 00877U 64053B   26053.63630837  .00000372  00000+0  96165-4 0  9994
2 00877  65.0782  15.3676 0079102 296.9977  62.3061 14.61351394264599
SL-8 R/B                
1 02802U 67045B   26053.83490843  .00000463  00000+0  13567-3 0  9996
2 02802  74.0122  15.8283 0063587  25.6940 334.7352 14.45605809 86870
SL-8 R/B                
1 03230U 68040B   26053.80171571  .00003902  00000+0  29000-3 0  9999
2 03230  74.0331 344.1101 0024612 172.6315 187.5240 15.03138685 87778
OAO 2                   
1 03597U 68110A   26053.81273543  .00000257  00000+0  74331-4 0  9994
2 03597  34.9948 348.2840 0004860  77.7765 282.3470 14.47297733 16942
ISIS 1                  
1 03669U 69009A   26053.67334431  .00000186  00000+0  11650-3 0  9995
2 03669  88.4555 156.9449 1707819 119.4583 258.7680 11.30408703346830
SERT 2                  
1 04327U 70009A   26053.62706955  .00000037  00000+0  10721-3 0  9991
2 04327  99.2739 357.5465 0004457 194.3845 344.4080 13.58728328777849
SL-3 R/B                
1 05118U 71028B   26053.77903778  .00043486  00000+0  53734-3 0  9996
2 05118  81.2332  70.4296 0015633 346.3997  13.6832 15.59789934986346
ASTEX 1                 
1 05560U 71089A   26053.71697473  .00000535  00000+0  13593-3 0  9997
2 05560  92.7140 146.9167 0017371 130.3160 229.9567 14.50751120860132
SL-8 R/B                
1 05730U 71119B   26053.69549353  .00015971  00000+0  82809-3 0  9996
2 05730  73.8870 203.7347 0551679 173.4710 187.4044 14.37363871653333
OAO 3 (COPERNICUS)      
1 06153U 72065A   26053.64430664  .00000402  00000+0  86875-4 0  9997
2 06153  35.0067  23.0323 0006186  33.1256 142.7810 14.59983807843992
